lat,lon,defect_type,severity,confidence,image_path,street_name,district
42.849524,74.552908,transverse_crack,2.1,0.94,ml/data/urban_tech/train/images/Screenshot-2025-12-12-at-22_10_52_png.rf.eeba80727939fc5f5780fdc6170a14f1.jpg,Димитрова улица,Ленинский район
42.86975,74.5515,transverse_crack,3.3,0.94,ml/data/urban_tech/train/images/Screenshot-2025-12-12-at-22_10_52_png.rf.eeba80727939fc5f5780fdc6170a14f1.jpg,Льва Толстого улица,Ленинский район
42.867952,74.561512,transverse_crack,2.8,0.92,ml/data/urban_tech/train/images/Screenshot-2025-12-12-at-22_10_52_png.rf.eeba80727939fc5f5780fdc6170a14f1.jpg,Льва Толстого улица,Ленинский район
42.858761,74.563004,transverse_crack,1.5,0.89,ml/data/urban_tech/train/images/Screenshot-2025-12-12-at-22_10_52_png.rf.eeba80727939fc5f5780fdc6170a14f1.jpg,Льва Толстого улица,Ленинский район
42.858726,74.5585,longitudinal_crack,1.7,0.94,ml/data/urban_tech/train/images/Screenshot-2025-12-12-at-22_08_02_png.rf.ce0d05da9904144c0a20dc8244514bc6.jpg,Московская улица,Ленинский район
42.858634,74.549663,longitudinal_crack,1.4,0.97,ml/data/urban_tech/train/images/Screenshot-2025-12-12-at-22_08_02_png.rf.ce0d05da9904144c0a20dc8244514bc6.jpg,Льва Толстого улица,Ленинский район
42.869136,74.556031,longitudinal_crack,1.5,0.92,ml/data/urban_tech/train/images/Screenshot-2025-12-12-at-22_08_02_png.rf.ce0d05da9904144c0a20dc8244514bc6.jpg,Чокморова улица,Ленинский район
42.858809,74.558834,longitudinal_crack,1.9,0.96,ml/data/urban_tech/train/images/Screenshot-2025-12-12-at-22_08_02_png.rf.ce0d05da9904144c0a20dc8244514bc6.jpg,Льва Толстого улица,Ленинский район
42.85469,74.599034,longitudinal_crack,1.3,0.91,ml/data/urban_tech/train/images/Screenshot-2025-12-12-at-22_12_11_png.rf.d25b17d957a706bfec8df1d43579f1d8.jpg,Панфилова улица,Октябрьский район
42.849975,74.589177,longitudinal_crack,1.1,0.85,ml/data/urban_tech/train/images/Screenshot-2025-12-12-at-22_12_11_png.rf.d25b17d957a706bfec8df1d43579f1d8.jpg,Панфилова улица,Октябрьский район
42.841331,74.592658,longitudinal_crack,1.6,0.94,ml/data/urban_tech/train/images/Screenshot-2025-12-12-at-22_12_11_png.rf.d25b17d957a706bfec8df1d43579f1d8.jpg,Фрунзе улица,Октябрьский район
42.84418,74.58826,longitudinal_crack,1.0,0.96,ml/data/urban_tech/train/images/Screenshot-2025-12-12-at-22_12_11_png.rf.d25b17d957a706bfec8df1d43579f1d8.jpg,Тыныстанова улица,Октябрьский район
42.88204,74.583858,alligator_crack,2.3,0.93,ml/data/urban_tech/train/images/Screenshot-2025-12-12-at-22_12_50_png.rf.7b74812481756b87ef3a612e26bff64a.jpg,Жибек Жолу проспект,Первомайский район
42.870784,74.576586,longitudinal_crack,3.3,0.94,ml/data/urban_tech/train/images/Screenshot-2025-12-12-at-22_12_50_png.rf.7b74812481756b87ef3a612e26bff64a.jpg,Мичурина улица,Первомайский район
42.853942,74.567546,longitudinal_crack,2.8,0.91,ml/data/urban_tech/train/images/Screenshot-2025-12-12-at-22_02_45_png.rf.16777d2aeeae4596f7b33ae8f7721a10.jpg,Димитрова улица,Ленинский район
42.865474,74.556818,longitudinal_crack,3.3,0.88,ml/data/urban_tech/train/images/Screenshot-2025-12-12-at-22_02_45_png.rf.16777d2aeeae4596f7b33ae8f7721a10.jpg,Димитрова улица,Ленинский район
42.864345,74.557503,longitudinal_crack,1.6,0.86,ml/data/urban_tech/train/images/Screenshot-2025-12-12-at-22_02_45_png.rf.16777d2aeeae4596f7b33ae8f7721a10.jpg,Абдыкадырова улица,Ленинский район
42.886224,74.562707,alligator_crack,1.4,0.96,ml/data/urban_tech/train/images/Screenshot-2025-12-12-at-21_50_32_png.rf.6c466408101ff75df840b612ad6f6358.jpg,Киевская улица,Свердловский район
42.878744,74.571147,alligator_crack,1.0,0.96,ml/data/urban_tech/train/images/Screenshot-2025-12-12-at-21_50_32_png.rf.6c466408101ff75df840b612ad6f6358.jpg,Байтик Баатыра улица,Свердловский район
42.880054,74.55182,alligator_crack,1.0,0.94,ml/data/urban_tech/train/images/Screenshot-2025-12-12-at-21_50_32_png.rf.6c466408101ff75df840b612ad6f6358.jpg,Токтогула улица,Свердловский район
42.895375,74.558061,alligator_crack,1.0,0.98,ml/data/urban_tech/train/images/Screenshot-2025-12-12-at-21_50_32_png.rf.6c466408101ff75df840b612ad6f6358.jpg,Токтогула улица,Свердловский район
42.87734,74.574708,alligator_crack,1.4,0.96,ml/data/urban_tech/train/images/Screenshot-2025-12-12-at-21_50_32_png.rf.6c466408101ff75df840b612ad6f6358.jpg,Токтогула улица,Свердловский район
42.881368,74.557555,alligator_crack,1.7,0.92,ml/data/urban_tech/train/images/Screenshot-2025-12-12-at-21_50_32_png.rf.6c466408101ff75df840b612ad6f6358.jpg,Токтогула улица,Свердловский район
42.885373,74.563679,alligator_crack,2.7,0.96,ml/data/urban_tech/train/images/Screenshot-2025-12-12-at-21_50_32_png.rf.6c466408101ff75df840b612ad6f6358.jpg,Московская улица,Свердловский район
42.88412,74.564403,alligator_crack,1.2,0.98,ml/data/urban_tech/train/images/Screenshot-2025-12-12-at-21_50_32_png.rf.6c466408101ff75df840b612ad6f6358.jpg,Чуйский проспект,Свердловский район
42.886135,74.565923,alligator_crack,1.0,0.96,ml/data/urban_tech/train/images/Screenshot-2025-12-12-at-21_50_32_png.rf.6c466408101ff75df840b612ad6f6358.jpg,Байтик Баатыра улица,Свердловский район
42.886949,74.568191,alligator_crack,1.2,0.97,ml/data/urban_tech/train/images/Screenshot-2025-12-12-at-21_50_32_png.rf.6c466408101ff75df840b612ad6f6358.jpg,Киевская улица,Свердловский район
42.887863,74.56647,alligator_crack,1.0,0.88,ml/data/urban_tech/train/images/Screenshot-2025-12-12-at-21_50_32_png.rf.6c466408101ff75df840b612ad6f6358.jpg,Чуйский проспект,Свердловский район
42.878513,74.571676,alligator_crack,1.0,0.96,ml/data/urban_tech/train/images/Screenshot-2025-12-12-at-21_50_32_png.rf.6c466408101ff75df840b612ad6f6358.jpg,Чуйский проспект,Свердловский район
42.875901,74.556286,alligator_crack,1.0,0.91,ml/data/urban_tech/train/images/Screenshot-2025-12-12-at-21_50_32_png.rf.6c466408101ff75df840b612ad6f6358.jpg,Московская улица,Свердловский район
42.861493,74.580361,alligator_crack,2.8,0.92,ml/data/urban_tech/train/images/Screenshot-2025-12-12-at-21_50_11_png.rf.a1a26746be979e3ba09767e627151e97.jpg,Димитрова улица,Ленинский район
42.867454,74.586614,alligator_crack,1.9,0.87,ml/data/urban_tech/train/images/Screenshot-2025-12-12-at-21_50_11_png.rf.a1a26746be979e3ba09767e627151e97.jpg,Абдыкадырова улица,Ленинский район
42.876835,74.57591,alligator_crack,1.7,0.87,ml/data/urban_tech/train/images/Screenshot-2025-12-12-at-21_50_11_png.rf.a1a26746be979e3ba09767e627151e97.jpg,Льва Толстого улица,Ленинский район
42.880988,74.589345,longitudinal_crack,1.0,0.92,ml/data/urban_tech/train/images/Screenshot-2025-12-12-at-21_56_48_png.rf.90e8202925b73fef63cdd694ef9ee5cd.jpg,Уметалиева улица,Первомайский район
42.887993,74.586796,longitudinal_crack,1.1,0.94,ml/data/urban_tech/train/images/Screenshot-2025-12-12-at-21_56_48_png.rf.90e8202925b73fef63cdd694ef9ee5cd.jpg,Уметалиева улица,Первомайский район
42.884029,74.582688,longitudinal_crack,1.1,0.86,ml/data/urban_tech/train/images/Screenshot-2025-12-12-at-21_56_48_png.rf.90e8202925b73fef63cdd694ef9ee5cd.jpg,Уметалиева улица,Первомайский район
42.883854,74.59155,longitudinal_crack,1.0,0.88,ml/data/urban_tech/train/images/Screenshot-2025-12-12-at-21_56_48_png.rf.90e8202925b73fef63cdd694ef9ee5cd.jpg,Куренкеева улица,Первомайский район
42.887507,74.585195,longitudinal_crack,1.0,0.87,ml/data/urban_tech/train/images/Screenshot-2025-12-12-at-21_56_48_png.rf.90e8202925b73fef63cdd694ef9ee5cd.jpg,Уметалиева улица,Первомайский район
42.893993,74.58281,longitudinal_crack,1.0,0.97,ml/data/urban_tech/train/images/Screenshot-2025-12-12-at-21_56_48_png.rf.90e8202925b73fef63cdd694ef9ee5cd.jpg,Жибек Жолу проспект,Первомайский район
42.890204,74.577497,longitudinal_crack,3.4,0.88,ml/data/urban_tech/train/images/Screenshot-2025-12-12-at-21_56_48_png.rf.90e8202925b73fef63cdd694ef9ee5cd.jpg,Ала-Арчинская улица,Первомайский район
42.886774,74.580182,longitudinal_crack,1.3,0.87,ml/data/urban_tech/train/images/Screenshot-2025-12-12-at-21_56_48_png.rf.90e8202925b73fef63cdd694ef9ee5cd.jpg,Уметалиева улица,Первомайский район
42.88102,74.582869,longitudinal_crack,1.0,0.92,ml/data/urban_tech/train/images/Screenshot-2025-12-12-at-21_56_48_png.rf.90e8202925b73fef63cdd694ef9ee5cd.jpg,Ала-Арчинская улица,Первомайский район
42.896287,74.558495,longitudinal_crack,2.2,0.97,ml/data/urban_tech/train/images/Screenshot-2025-12-12-at-22_08_17_png.rf.6a367da520c92d8e17351529546e1eb5.jpg,Киевская улица,Свердловский район
42.886999,74.564645,longitudinal_crack,1.5,0.95,ml/data/urban_tech/train/images/Screenshot-2025-12-12-at-22_08_17_png.rf.6a367da520c92d8e17351529546e1eb5.jpg,Байтик Баатыра улица,Свердловский район
42.884209,74.569359,alligator_crack,1.5,0.94,ml/data/urban_tech/train/images/Screenshot-2025-12-12-at-22_08_17_png.rf.6a367da520c92d8e17351529546e1eb5.jpg,Московская улица,Свердловский район
42.883991,74.577394,alligator_crack,2.5,0.86,ml/data/urban_tech/train/images/Screenshot-2025-12-12-at-22_08_17_png.rf.6a367da520c92d8e17351529546e1eb5.jpg,Токтогула улица,Свердловский район
42.892111,74.553689,longitudinal_crack,1.5,0.98,ml/data/urban_tech/train/images/Screenshot-2025-12-12-at-21_58_00_png.rf.1b3e71842e496a1ce07f16fec1dd9462.jpg,Чуйский проспект,Свердловский район
42.881142,74.571106,longitudinal_crack,1.3,0.86,ml/data/urban_tech/train/images/Screenshot-2025-12-12-at-21_58_00_png.rf.1b3e71842e496a1ce07f16fec1dd9462.jpg,Токтогула улица,Свердловский район
42.88524,74.563098,longitudinal_crack,1.0,0.93,ml/data/urban_tech/train/images/Screenshot-2025-12-12-at-21_58_00_png.rf.1b3e71842e496a1ce07f16fec1dd9462.jpg,Киевская улица,Свердловский район
42.873061,74.56644,longitudinal_crack,1.0,0.9,ml/data/urban_tech/train/images/Screenshot-2025-12-12-at-21_58_00_png.rf.1b3e71842e496a1ce07f16fec1dd9462.jpg,Киевская улица,Свердловский район
42.881718,74.564748,longitudinal_crack,1.1,0.94,ml/data/urban_tech/train/images/Screenshot-2025-12-12-at-21_58_00_png.rf.1b3e71842e496a1ce07f16fec1dd9462.jpg,Токтогула улица,Свердловский район
42.881352,74.580598,pothole,2.5,0.95,ml/data/urban_tech/train/images/Screenshot-2025-12-12-at-21_45_01_png.rf.95a4b206c4e83a564f965af2e45111fd.jpg,Жибек Жолу проспект,Первомайский район
42.850081,74.589935,pothole,4.0,0.9,ml/data/urban_tech/train/images/Screenshot-2025-12-12-at-22_02_15_png.rf.057620dc127733252c3346d4514053f2.jpg,Тыныстанова улица,Октябрьский район
42.851998,74.590454,pothole,3.7,0.89,ml/data/urban_tech/train/images/Screenshot-2025-12-12-at-22_02_15_png.rf.057620dc127733252c3346d4514053f2.jpg,Боконбаева улица,Октябрьский район
42.848762,74.588007,pothole,1.8,0.97,ml/data/urban_tech/train/images/Screenshot-2025-12-12-at-22_02_15_png.rf.057620dc127733252c3346d4514053f2.jpg,Ибраимова улица,Октябрьский район
42.868255,74.55802,alligator_crack,1.9,0.95,ml/data/urban_tech/train/images/Screenshot-2025-12-12-at-22_11_11_png.rf.22264ac682b70f7a8c043ae1e038aa64.jpg,Байтик Баатыра улица,Свердловский район
42.874808,74.567814,alligator_crack,2.0,0.91,ml/data/urban_tech/train/images/Screenshot-2025-12-12-at-22_11_11_png.rf.22264ac682b70f7a8c043ae1e038aa64.jpg,Байтик Баатыра улица,Свердловский район
42.870846,74.567481,pothole,2.7,0.93,ml/data/urban_tech/train/images/Screenshot-2025-12-12-at-22_11_11_png.rf.22264ac682b70f7a8c043ae1e038aa64.jpg,Байтик Баатыра улица,Свердловский район
42.859579,74.572398,longitudinal_crack,1.2,0.95,ml/data/urban_tech/train/images/Screenshot-2025-12-12-at-22_11_11_png.rf.22264ac682b70f7a8c043ae1e038aa64.jpg,Киевская улица,Свердловский район
42.865847,74.580252,longitudinal_crack,1.4,0.89,ml/data/urban_tech/train/images/Screenshot-2025-12-12-at-22_11_11_png.rf.22264ac682b70f7a8c043ae1e038aa64.jpg,Московская улица,Свердловский район
42.838319,74.584133,longitudinal_crack,2.5,0.87,ml/data/urban_tech/train/images/Screenshot-2025-12-12-at-22_02_00_png.rf.27cff3075d16f038d8e2afb62058e563.jpg,Ибраимова улица,Октябрьский район
42.855083,74.597121,pothole,1.9,0.94,ml/data/urban_tech/train/images/Screenshot-2025-12-12-at-22_02_00_png.rf.27cff3075d16f038d8e2afb62058e563.jpg,Боконбаева улица,Октябрьский район
42.896788,74.580886,alligator_crack,1.1,0.94,ml/data/urban_tech/train/images/Screenshot-2025-12-12-at-21_55_38_png.rf.9e34752645e3e4b581bb34e537d00dbb.jpg,Уметалиева улица,Первомайский район
42.886472,74.571933,alligator_crack,1.4,0.97,ml/data/urban_tech/train/images/Screenshot-2025-12-12-at-21_55_38_png.rf.9e34752645e3e4b581bb34e537d00dbb.jpg,Куренкеева улица,Первомайский район
42.887162,74.581513,alligator_crack,1.0,0.96,ml/data/urban_tech/train/images/Screenshot-2025-12-12-at-21_55_38_png.rf.9e34752645e3e4b581bb34e537d00dbb.jpg,Мичурина улица,Первомайский район
42.890978,74.583175,alligator_crack,1.0,0.96,ml/data/urban_tech/train/images/Screenshot-2025-12-12-at-21_55_38_png.rf.9e34752645e3e4b581bb34e537d00dbb.jpg,Куренкеева улица,Первомайский район
42.899665,74.583507,alligator_crack,4.7,0.96,ml/data/urban_tech/train/images/Screenshot-2025-12-12-at-21_55_38_png.rf.9e34752645e3e4b581bb34e537d00dbb.jpg,Уметалиева улица,Первомайский район
42.893821,74.580043,alligator_crack,3.2,0.87,ml/data/urban_tech/train/images/Screenshot-2025-12-12-at-21_55_38_png.rf.9e34752645e3e4b581bb34e537d00dbb.jpg,Куренкеева улица,Первомайский район
42.894913,74.58703,alligator_crack,1.0,0.94,ml/data/urban_tech/train/images/Screenshot-2025-12-12-at-21_55_38_png.rf.9e34752645e3e4b581bb34e537d00dbb.jpg,Уметалиева улица,Первомайский район
42.893524,74.585322,alligator_crack,1.8,0.97,ml/data/urban_tech/train/images/Screenshot-2025-12-12-at-21_55_38_png.rf.9e34752645e3e4b581bb34e537d00dbb.jpg,Куренкеева улица,Первомайский район
42.859842,74.571799,alligator_crack,2.0,0.9,ml/data/urban_tech/train/images/Screenshot-2025-12-12-at-21_52_55_png.rf.38381fd36ec957787a845a6d98104858.jpg,Чуйский проспект,Свердловский район
42.888878,74.583628,alligator_crack,1.4,0.87,ml/data/urban_tech/train/images/Screenshot-2025-12-12-at-21_52_55_png.rf.38381fd36ec957787a845a6d98104858.jpg,Токтогула улица,Свердловский район
42.878441,74.556721,alligator_crack,1.0,0.87,ml/data/urban_tech/train/images/Screenshot-2025-12-12-at-21_52_55_png.rf.38381fd36ec957787a845a6d98104858.jpg,Чуйский проспект,Свердловский район
42.883658,74.570363,alligator_crack,3.6,0.92,ml/data/urban_tech/train/images/Screenshot-2025-12-12-at-21_52_55_png.rf.38381fd36ec957787a845a6d98104858.jpg,Чуйский проспект,Свердловский район
42.875927,74.568171,alligator_crack,3.4,0.9,ml/data/urban_tech/train/images/Screenshot-2025-12-12-at-21_52_55_png.rf.38381fd36ec957787a845a6d98104858.jpg,Байтик Баатыра улица,Свердловский район
42.874968,74.567172,alligator_crack,2.0,0.86,ml/data/urban_tech/train/images/Screenshot-2025-12-12-at-21_52_55_png.rf.38381fd36ec957787a845a6d98104858.jpg,Киевская улица,Свердловский район
42.887147,74.560916,longitudinal_crack,1.3,0.87,ml/data/urban_tech/train/images/Screenshot-2025-12-12-at-21_57_02_png.rf.0c7415d7b7264e0cab2be6708e214f82.jpg,Киевская улица,Свердловский район
42.881708,74.563154,longitudinal_crack,2.4,0.97,ml/data/urban_tech/train/images/Screenshot-2025-12-12-at-21_37_18_png.rf.de997b6de13fbcbf415d3a7976f7a888.jpg,Байтик Баатыра улица,Свердловский район
42.889103,74.553747,longitudinal_crack,1.8,0.93,ml/data/urban_tech/train/images/Screenshot-2025-12-12-at-21_37_18_png.rf.de997b6de13fbcbf415d3a7976f7a888.jpg,Киевская улица,Свердловский район
42.884504,74.561151,longitudinal_crack,1.4,0.89,ml/data/urban_tech/train/images/Screenshot-2025-12-12-at-21_37_18_png.rf.de997b6de13fbcbf415d3a7976f7a888.jpg,Байтик Баатыра улица,Свердловский район
42.870355,74.566553,pothole,1.9,0.88,ml/data/urban_tech/train/images/Screenshot-2025-12-12-at-22_02_59_png.rf.998a517d3516a8515a6a2c221ff673b3.jpg,Московская улица,Ленинский район
42.871167,74.582513,pothole,3.6,0.9,ml/data/urban_tech/train/images/Screenshot-2025-12-12-at-22_02_59_png.rf.998a517d3516a8515a6a2c221ff673b3.jpg,Абдыкадырова улица,Ленинский район
42.86992,74.570097,pothole,2.9,0.9,ml/data/urban_tech/train/images/Screenshot-2025-12-12-at-22_02_59_png.rf.998a517d3516a8515a6a2c221ff673b3.jpg,Чокморова улица,Ленинский район
42.86311,74.584011,pothole,1.9,0.87,ml/data/urban_tech/train/images/Screenshot-2025-12-12-at-22_02_59_png.rf.998a517d3516a8515a6a2c221ff673b3.jpg,Чокморова улица,Ленинский район
42.868054,74.567703,pothole,2.7,0.93,ml/data/urban_tech/train/images/Screenshot-2025-12-12-at-22_02_59_png.rf.998a517d3516a8515a6a2c221ff673b3.jpg,Московская улица,Ленинский район
42.865397,74.577015,pothole,3.0,0.92,ml/data/urban_tech/train/images/Screenshot-2025-12-12-at-22_02_59_png.rf.998a517d3516a8515a6a2c221ff673b3.jpg,Чокморова улица,Ленинский район
42.871228,74.577925,longitudinal_crack,1.9,0.88,ml/data/urban_tech/train/images/Screenshot-2025-12-12-at-21_44_09_png.rf.56ad1134d65d4f959a270ac7013343ab.jpg,Абдыкадырова улица,Ленинский район
42.864797,74.57588,pothole,3.4,0.93,ml/data/urban_tech/train/images/Screenshot-2025-12-12-at-21_44_09_png.rf.56ad1134d65d4f959a270ac7013343ab.jpg,Московская улица,Ленинский район
42.879031,74.581183,longitudinal_crack,1.8,0.87,ml/data/urban_tech/train/images/Screenshot-2025-12-12-at-21_58_24_png.rf.8d0cd2f50125860165abbb82f2e057b3.jpg,Куренкеева улица,Первомайский район
42.879504,74.580469,pothole,2.1,0.91,ml/data/urban_tech/train/images/Screenshot-2025-12-12-at-21_58_24_png.rf.8d0cd2f50125860165abbb82f2e057b3.jpg,Жибек Жолу проспект,Первомайский район
42.885427,74.577314,pothole,2.4,0.85,ml/data/urban_tech/train/images/Screenshot-2025-12-12-at-21_58_24_png.rf.8d0cd2f50125860165abbb82f2e057b3.jpg,Куренкеева улица,Первомайский район
42.87533,74.589011,pothole,2.6,0.9,ml/data/urban_tech/train/images/Screenshot-2025-12-12-at-21_58_24_png.rf.8d0cd2f50125860165abbb82f2e057b3.jpg,Куренкеева улица,Первомайский район
42.870357,74.578815,pothole,2.9,0.89,ml/data/urban_tech/train/images/Screenshot-2025-12-12-at-21_58_24_png.rf.8d0cd2f50125860165abbb82f2e057b3.jpg,Уметалиева улица,Первомайский район
42.870289,74.578116,pothole,2.2,0.86,ml/data/urban_tech/train/images/Screenshot-2025-12-12-at-21_58_24_png.rf.8d0cd2f50125860165abbb82f2e057b3.jpg,Мичурина улица,Первомайский район
42.869227,74.556022,longitudinal_crack,1.4,0.97,ml/data/urban_tech/train/images/Screenshot-2025-12-12-at-21_56_54_png.rf.63ac873159d2ff3ed68760d1d11b7d2b.jpg,Льва Толстого улица,Ленинский район
42.861358,74.558638,longitudinal_crack,1.4,0.91,ml/data/urban_tech/train/images/Screenshot-2025-12-12-at-21_56_54_png.rf.63ac873159d2ff3ed68760d1d11b7d2b.jpg,Димитрова улица,Ленинский район
42.8642,74.562195,longitudinal_crack,1.3,0.85,ml/data/urban_tech/train/images/Screenshot-2025-12-12-at-21_56_54_png.rf.63ac873159d2ff3ed68760d1d11b7d2b.jpg,Димитрова улица,Ленинский район
42.859979,74.556052,longitudinal_crack,1.0,0.96,ml/data/urban_tech/train/images/Screenshot-2025-12-12-at-21_56_54_png.rf.63ac873159d2ff3ed68760d1d11b7d2b.jpg,Димитрова улица,Ленинский район
42.864319,74.549309,longitudinal_crack,1.1,0.97,ml/data/urban_tech/train/images/Screenshot-2025-12-12-at-21_56_54_png.rf.63ac873159d2ff3ed68760d1d11b7d2b.jpg,Абдыкадырова улица,Ленинский район
42.856501,74.557112,longitudinal_crack,1.9,0.88,ml/data/urban_tech/train/images/Screenshot-2025-12-12-at-21_56_54_png.rf.63ac873159d2ff3ed68760d1d11b7d2b.jpg,Льва Толстого улица,Ленинский район
42.857309,74.573098,longitudinal_crack,1.0,0.88,ml/data/urban_tech/train/images/Screenshot-2025-12-12-at-21_56_54_png.rf.63ac873159d2ff3ed68760d1d11b7d2b.jpg,Димитрова улица,Ленинский район
42.852155,74.568126,longitudinal_crack,1.0,0.85,ml/data/urban_tech/train/images/Screenshot-2025-12-12-at-21_56_54_png.rf.63ac873159d2ff3ed68760d1d11b7d2b.jpg,Чокморова улица,Ленинский район
42.890102,74.585191,longitudinal_crack,2.2,0.87,ml/data/urban_tech/train/images/Screenshot-2025-12-12-at-21_58_37_png.rf.7a762892318d9ae6887014024026a19b.jpg,Ала-Арчинская улица,Первомайский район
42.891259,74.58292,pothole,5.3,0.97,ml/data/urban_tech/train/images/Screenshot-2025-12-12-at-21_58_37_png.rf.7a762892318d9ae6887014024026a19b.jpg,Жибек Жолу проспект,Первомайский район
42.883066,74.589072,pothole,4.0,0.87,ml/data/urban_tech/train/images/Screenshot-2025-12-12-at-21_58_37_png.rf.7a762892318d9ae6887014024026a19b.jpg,Уметалиева улица,Первомайский район
42.885758,74.586183,pothole,3.6,0.91,ml/data/urban_tech/train/images/Screenshot-2025-12-12-at-21_58_37_png.rf.7a762892318d9ae6887014024026a19b.jpg,Ала-Арчинская улица,Первомайский район
42.877389,74.592797,pothole,4.7,0.96,ml/data/urban_tech/train/images/Screenshot-2025-12-12-at-21_43_37_png.rf.4e8d01136bc94bd9013c4f8d1210800f.jpg,Жибек Жолу проспект,Первомайский район
42.848968,74.59415,pothole,5.0,0.97,ml/data/urban_tech/train/images/Screenshot-2025-12-12-at-21_45_48_png.rf.38310b8b8139d7e35ae97b11661312d3.jpg,Фрунзе улица,Октябрьский район
42.865984,74.570184,alligator_crack,1.3,0.86,ml/data/urban_tech/train/images/Screenshot-2025-12-12-at-22_11_42_png.rf.ed082bcb16582fd3409f12eac0d907da.jpg,Чокморова улица,Ленинский район
42.866533,74.575736,alligator_crack,1.0,0.9,ml/data/urban_tech/train/images/Screenshot-2025-12-12-at-22_11_42_png.rf.ed082bcb16582fd3409f12eac0d907da.jpg,Московская улица,Ленинский район
42.86536,74.576155,alligator_crack,1.0,0.9,ml/data/urban_tech/train/images/Screenshot-2025-12-12-at-22_11_42_png.rf.ed082bcb16582fd3409f12eac0d907da.jpg,Чокморова улица,Ленинский район
42.864717,74.57408,longitudinal_crack,1.0,0.92,ml/data/urban_tech/train/images/Screenshot-2025-12-12-at-22_11_42_png.rf.ed082bcb16582fd3409f12eac0d907da.jpg,Московская улица,Ленинский район
42.873694,74.581027,longitudinal_crack,1.5,0.97,ml/data/urban_tech/train/images/Screenshot-2025-12-12-at-22_11_42_png.rf.ed082bcb16582fd3409f12eac0d907da.jpg,Московская улица,Ленинский район
42.865132,74.575799,alligator_crack,1.0,0.88,ml/data/urban_tech/train/images/Screenshot-2025-12-12-at-22_11_42_png.rf.ed082bcb16582fd3409f12eac0d907da.jpg,Московская улица,Ленинский район
42.870735,74.554715,pothole,3.5,0.86,ml/data/urban_tech/train/images/Screenshot-2025-12-12-at-22_10_59_png.rf.21a47e8365d30cf78bf33d06f6ec64ed.jpg,Московская улица,Ленинский район
42.850973,74.559796,pothole,3.1,0.92,ml/data/urban_tech/train/images/Screenshot-2025-12-12-at-22_10_59_png.rf.21a47e8365d30cf78bf33d06f6ec64ed.jpg,Льва Толстого улица,Ленинский район
42.862825,74.560237,transverse_crack,2.5,0.85,ml/data/urban_tech/train/images/Screenshot-2025-12-12-at-22_10_59_png.rf.21a47e8365d30cf78bf33d06f6ec64ed.jpg,Льва Толстого улица,Ленинский район
42.86788,74.563747,transverse_crack,2.8,0.9,ml/data/urban_tech/train/images/Screenshot-2025-12-12-at-22_10_59_png.rf.21a47e8365d30cf78bf33d06f6ec64ed.jpg,Московская улица,Ленинский район
42.872308,74.57716,transverse_crack,1.4,0.87,ml/data/urban_tech/train/images/Screenshot-2025-12-12-at-22_05_47_png.rf.0a6ed45eaf27ef0d2976277d7d296d01.jpg,Киевская улица,Свердловский район
42.860899,74.566773,longitudinal_crack,2.1,0.88,ml/data/urban_tech/train/images/Screenshot-2025-12-12-at-22_05_47_png.rf.0a6ed45eaf27ef0d2976277d7d296d01.jpg,Токтогула улица,Свердловский район
42.873293,74.567418,longitudinal_crack,2.0,0.92,ml/data/urban_tech/train/images/Screenshot-2025-12-12-at-22_05_47_png.rf.0a6ed45eaf27ef0d2976277d7d296d01.jpg,Киевская улица,Свердловский район
42.893766,74.571757,longitudinal_crack,1.0,0.88,ml/data/urban_tech/train/images/Screenshot-2025-12-12-at-22_05_47_png.rf.0a6ed45eaf27ef0d2976277d7d296d01.jpg,Киевская улица,Свердловский район
42.873192,74.567523,longitudinal_crack,1.7,0.95,ml/data/urban_tech/train/images/Screenshot-2025-12-12-at-22_05_47_png.rf.0a6ed45eaf27ef0d2976277d7d296d01.jpg,Чуйский проспект,Свердловский район
42.877193,74.551843,longitudinal_crack,1.8,0.95,ml/data/urban_tech/train/images/Screenshot-2025-12-12-at-22_05_47_png.rf.0a6ed45eaf27ef0d2976277d7d296d01.jpg,Московская улица,Свердловский район
42.85014,74.588974,alligator_crack,1.0,0.91,ml/data/urban_tech/train/images/Screenshot-2025-12-12-at-21_51_32_png.rf.c1c52be4cd7fa9212cc9139032aff584.jpg,Ибраимова улица,Октябрьский район
42.851397,74.595742,alligator_crack,1.0,0.85,ml/data/urban_tech/train/images/Screenshot-2025-12-12-at-21_51_32_png.rf.c1c52be4cd7fa9212cc9139032aff584.jpg,Панфилова улица,Октябрьский район
42.836884,74.595454,alligator_crack,1.0,0.86,ml/data/urban_tech/train/images/Screenshot-2025-12-12-at-21_51_32_png.rf.c1c52be4cd7fa9212cc9139032aff584.jpg,Ибраимова улица,Октябрьский район
42.837423,74.596902,alligator_crack,1.2,0.96,ml/data/urban_tech/train/images/Screenshot-2025-12-12-at-21_51_32_png.rf.c1c52be4cd7fa9212cc9139032aff584.jpg,Боконбаева улица,Октябрьский район
42.861156,74.589633,alligator_crack,1.0,0.9,ml/data/urban_tech/train/images/Screenshot-2025-12-12-at-21_51_32_png.rf.c1c52be4cd7fa9212cc9139032aff584.jpg,Боконбаева улица,Октябрьский район
42.849061,74.587077,alligator_crack,1.0,0.93,ml/data/urban_tech/train/images/Screenshot-2025-12-12-at-21_51_32_png.rf.c1c52be4cd7fa9212cc9139032aff584.jpg,Боконбаева улица,Октябрьский район
42.849555,74.590646,alligator_crack,1.0,0.94,ml/data/urban_tech/train/images/Screenshot-2025-12-12-at-21_51_32_png.rf.c1c52be4cd7fa9212cc9139032aff584.jpg,Панфилова улица,Октябрьский район
42.85473,74.598065,alligator_crack,1.0,0.92,ml/data/urban_tech/train/images/Screenshot-2025-12-12-at-21_51_32_png.rf.c1c52be4cd7fa9212cc9139032aff584.jpg,Боконбаева улица,Октябрьский район
42.849998,74.590002,alligator_crack,1.1,0.97,ml/data/urban_tech/train/images/Screenshot-2025-12-12-at-21_51_32_png.rf.c1c52be4cd7fa9212cc9139032aff584.jpg,Тыныстанова улица,Октябрьский район
42.851405,74.601768,alligator_crack,1.0,0.94,ml/data/urban_tech/train/images/Screenshot-2025-12-12-at-21_51_32_png.rf.c1c52be4cd7fa9212cc9139032aff584.jpg,Боконбаева улица,Октябрьский район
42.853971,74.577343,alligator_crack,1.0,0.86,ml/data/urban_tech/train/images/Screenshot-2025-12-12-at-21_51_32_png.rf.c1c52be4cd7fa9212cc9139032aff584.jpg,Фрунзе улица,Октябрьский район
42.85569,74.58085,alligator_crack,1.0,0.85,ml/data/urban_tech/train/images/Screenshot-2025-12-12-at-21_51_32_png.rf.c1c52be4cd7fa9212cc9139032aff584.jpg,Ибраимова улица,Октябрьский район
42.849209,74.5906,alligator_crack,1.0,0.86,ml/data/urban_tech/train/images/Screenshot-2025-12-12-at-21_51_32_png.rf.c1c52be4cd7fa9212cc9139032aff584.jpg,Боконбаева улица,Октябрьский район
42.876992,74.567452,longitudinal_crack,1.1,0.98,ml/data/urban_tech/train/images/Screenshot-2025-12-12-at-21_59_36_png.rf.79148968eebf6009d6a51b6494bb73cd.jpg,Чуйский проспект,Свердловский район
42.873364,74.569852,longitudinal_crack,1.5,0.86,ml/data/urban_tech/train/images/Screenshot-2025-12-12-at-21_59_36_png.rf.79148968eebf6009d6a51b6494bb73cd.jpg,Киевская улица,Свердловский район
42.874891,74.571211,longitudinal_crack,1.2,0.87,ml/data/urban_tech/train/images/Screenshot-2025-12-12-at-21_59_36_png.rf.79148968eebf6009d6a51b6494bb73cd.jpg,Чуйский проспект,Свердловский район
42.877083,74.568451,longitudinal_crack,1.0,0.93,ml/data/urban_tech/train/images/Screenshot-2025-12-12-at-21_59_36_png.rf.79148968eebf6009d6a51b6494bb73cd.jpg,Московская улица,Свердловский район
42.877183,74.563213,longitudinal_crack,1.0,0.86,ml/data/urban_tech/train/images/Screenshot-2025-12-12-at-21_59_36_png.rf.79148968eebf6009d6a51b6494bb73cd.jpg,Московская улица,Свердловский район
42.87161,74.569,longitudinal_crack,1.0,0.87,ml/data/urban_tech/train/images/Screenshot-2025-12-12-at-21_59_36_png.rf.79148968eebf6009d6a51b6494bb73cd.jpg,Московская улица,Свердловский район
42.878609,74.567152,longitudinal_crack,1.0,0.91,ml/data/urban_tech/train/images/Screenshot-2025-12-12-at-21_59_36_png.rf.79148968eebf6009d6a51b6494bb73cd.jpg,Чуйский проспект,Свердловский район
42.860451,74.56932,alligator_crack,1.6,0.89,ml/data/urban_tech/train/images/Screenshot-2025-12-12-at-21_52_23_png.rf.608e80d3c6426d45264c53b524f4d4d0.jpg,Чокморова улица,Ленинский район
42.864068,74.577956,alligator_crack,1.4,0.94,ml/data/urban_tech/train/images/Screenshot-2025-12-12-at-21_52_23_png.rf.608e80d3c6426d45264c53b524f4d4d0.jpg,Димитрова улица,Ленинский район
42.860421,74.580277,alligator_crack,1.2,0.89,ml/data/urban_tech/train/images/Screenshot-2025-12-12-at-21_52_23_png.rf.608e80d3c6426d45264c53b524f4d4d0.jpg,Чокморова улица,Ленинский район
42.868679,74.57905,alligator_crack,1.0,0.93,ml/data/urban_tech/train/images/Screenshot-2025-12-12-at-21_52_23_png.rf.608e80d3c6426d45264c53b524f4d4d0.jpg,Московская улица,Ленинский район
42.865089,74.576143,alligator_crack,2.0,0.91,ml/data/urban_tech/train/images/Screenshot-2025-12-12-at-21_52_23_png.rf.608e80d3c6426d45264c53b524f4d4d0.jpg,Чокморова улица,Ленинский район
42.861358,74.574903,alligator_crack,1.2,0.98,ml/data/urban_tech/train/images/Screenshot-2025-12-12-at-21_52_23_png.rf.608e80d3c6426d45264c53b524f4d4d0.jpg,Чокморова улица,Ленинский район
42.863807,74.584281,pothole,3.6,0.88,ml/data/urban_tech/train/images/Screenshot-2025-12-12-at-22_01_31_png.rf.7c9515ae14536400171162e75aaa1eb8.jpg,Московская улица,Ленинский район
42.861477,74.577872,pothole,2.4,0.92,ml/data/urban_tech/train/images/Screenshot-2025-12-12-at-22_01_31_png.rf.7c9515ae14536400171162e75aaa1eb8.jpg,Чокморова улица,Ленинский район
42.87975,74.562191,longitudinal_crack,1.0,0.91,ml/data/urban_tech/train/images/Screenshot-2025-12-12-at-22_00_19_png.rf.824d565af5519b4e398a1ddad1d18638.jpg,Киевская улица,Свердловский район
42.859096,74.560106,longitudinal_crack,1.3,0.87,ml/data/urban_tech/train/images/Screenshot-2025-12-12-at-22_00_19_png.rf.824d565af5519b4e398a1ddad1d18638.jpg,Байтик Баатыра улица,Свердловский район
42.889843,74.565717,longitudinal_crack,2.2,0.86,ml/data/urban_tech/train/images/Screenshot-2025-12-12-at-22_00_19_png.rf.824d565af5519b4e398a1ddad1d18638.jpg,Токтогула улица,Свердловский район
42.876688,74.566917,longitudinal_crack,1.0,0.9,ml/data/urban_tech/train/images/Screenshot-2025-12-12-at-22_00_19_png.rf.824d565af5519b4e398a1ddad1d18638.jpg,Чуйский проспект,Свердловский район
42.844449,74.598546,alligator_crack,1.9,0.93,ml/data/urban_tech/train/images/Screenshot-2025-12-12-at-22_12_25_png.rf.b8c40ae4ccb26f31e6e2c6e3653c4993.jpg,Ибраимова улица,Октябрьский район
42.83701,74.593596,pothole,3.1,0.88,ml/data/urban_tech/train/images/Screenshot-2025-12-12-at-22_12_25_png.rf.b8c40ae4ccb26f31e6e2c6e3653c4993.jpg,Ибраимова улица,Октябрьский район
42.839056,74.595766,longitudinal_crack,1.3,0.95,ml/data/urban_tech/train/images/Screenshot-2025-12-12-at-22_12_25_png.rf.b8c40ae4ccb26f31e6e2c6e3653c4993.jpg,Фрунзе улица,Октябрьский район
42.885191,74.57051,alligator_crack,1.4,0.91,ml/data/urban_tech/train/images/Screenshot-2025-12-12-at-22_08_29_png.rf.63d617a92d0d7b9f8bd92325bc045608.jpg,Киевская улица,Свердловский район
42.883141,74.573303,longitudinal_crack,1.0,0.95,ml/data/urban_tech/train/images/Screenshot-2025-12-12-at-22_08_29_png.rf.63d617a92d0d7b9f8bd92325bc045608.jpg,Токтогула улица,Свердловский район
42.885264,74.56673,longitudinal_crack,1.0,0.97,ml/data/urban_tech/train/images/Screenshot-2025-12-12-at-22_08_29_png.rf.63d617a92d0d7b9f8bd92325bc045608.jpg,Московская улица,Свердловский район
42.884113,74.56915,transverse_crack,2.2,0.87,ml/data/urban_tech/train/images/Screenshot-2025-12-12-at-22_13_30_png.rf.f972b4f041946a23640a27c0c79ae1c8.jpg,Уметалиева улица,Первомайский район
42.871571,74.58763,transverse_crack,3.2,0.96,ml/data/urban_tech/train/images/Screenshot-2025-12-12-at-22_13_30_png.rf.f972b4f041946a23640a27c0c79ae1c8.jpg,Жибек Жолу проспект,Первомайский район
42.862317,74.579701,alligator_crack,1.5,0.95,ml/data/urban_tech/train/images/Screenshot-2025-12-12-at-21_53_56_png.rf.2b450383de28d854fbddaec43235f009.jpg,Чокморова улица,Ленинский район
42.865606,74.575012,alligator_crack,1.0,0.93,ml/data/urban_tech/train/images/Screenshot-2025-12-12-at-21_53_56_png.rf.2b450383de28d854fbddaec43235f009.jpg,Димитрова улица,Ленинский район
42.864767,74.586264,alligator_crack,1.1,0.95,ml/data/urban_tech/train/images/Screenshot-2025-12-12-at-21_53_56_png.rf.2b450383de28d854fbddaec43235f009.jpg,Чокморова улица,Ленинский район
42.874475,74.571795,pothole,4.6,0.91,ml/data/urban_tech/train/images/Screenshot-2025-12-12-at-22_01_47_png.rf.9e66ba115cfef13fcf593855ff61c70c.jpg,Байтик Баатыра улица,Свердловский район
42.870365,74.574952,transverse_crack,1.1,0.89,ml/data/urban_tech/train/images/Screenshot-2025-12-12-at-22_01_47_png.rf.9e66ba115cfef13fcf593855ff61c70c.jpg,Токтогула улица,Свердловский район
42.872204,74.572747,transverse_crack,1.3,0.91,ml/data/urban_tech/train/images/Screenshot-2025-12-12-at-22_01_47_png.rf.9e66ba115cfef13fcf593855ff61c70c.jpg,Токтогула улица,Свердловский район
42.849869,74.555069,pothole,1.6,0.89,ml/data/urban_tech/train/images/Screenshot-2025-12-12-at-21_47_15_png.rf.6ce50f1e59a477b3eeba7929ac302a8f.jpg,Абдыкадырова улица,Ленинский район
42.854702,74.556787,pothole,2.0,0.89,ml/data/urban_tech/train/images/Screenshot-2025-12-12-at-21_47_15_png.rf.6ce50f1e59a477b3eeba7929ac302a8f.jpg,Димитрова улица,Ленинский район
42.879951,74.580117,longitudinal_crack,2.0,0.93,ml/data/urban_tech/test/images/Screenshot-2025-12-12-at-21_57_49_png.rf.8a953444d02d7e58e1c1b67956a6c437.jpg,Куренкеева улица,Первомайский район
42.882389,74.58515,longitudinal_crack,1.1,0.9,ml/data/urban_tech/test/images/Screenshot-2025-12-12-at-21_57_49_png.rf.8a953444d02d7e58e1c1b67956a6c437.jpg,Уметалиева улица,Первомайский район
42.881984,74.58104,longitudinal_crack,1.0,0.95,ml/data/urban_tech/test/images/Screenshot-2025-12-12-at-21_57_49_png.rf.8a953444d02d7e58e1c1b67956a6c437.jpg,Ала-Арчинская улица,Первомайский район
42.878362,74.570399,longitudinal_crack,1.0,0.87,ml/data/urban_tech/test/images/Screenshot-2025-12-12-at-21_57_49_png.rf.8a953444d02d7e58e1c1b67956a6c437.jpg,Мичурина улица,Первомайский район
42.872829,74.57734,longitudinal_crack,1.0,0.96,ml/data/urban_tech/test/images/Screenshot-2025-12-12-at-21_57_49_png.rf.8a953444d02d7e58e1c1b67956a6c437.jpg,Мичурина улица,Первомайский район
42.870418,74.575605,alligator_crack,1.2,0.96,ml/data/urban_tech/test/images/Screenshot-2025-12-12-at-22_10_22_png.rf.1a0bdd25b0833998682ecdcdb1cce497.jpg,Московская улица,Свердловский район
42.875647,74.570374,alligator_crack,1.0,0.94,ml/data/urban_tech/test/images/Screenshot-2025-12-12-at-22_10_22_png.rf.1a0bdd25b0833998682ecdcdb1cce497.jpg,Байтик Баатыра улица,Свердловский район
42.879924,74.557014,alligator_crack,1.0,0.87,ml/data/urban_tech/test/images/Screenshot-2025-12-12-at-22_10_22_png.rf.1a0bdd25b0833998682ecdcdb1cce497.jpg,Киевская улица,Свердловский район
42.862679,74.579078,alligator_crack,1.6,0.94,ml/data/urban_tech/test/images/Screenshot-2025-12-12-at-22_10_22_png.rf.1a0bdd25b0833998682ecdcdb1cce497.jpg,Байтик Баатыра улица,Свердловский район
42.869637,74.562343,alligator_crack,1.0,0.92,ml/data/urban_tech/test/images/Screenshot-2025-12-12-at-22_10_22_png.rf.1a0bdd25b0833998682ecdcdb1cce497.jpg,Московская улица,Свердловский район
42.883287,74.554021,alligator_crack,1.3,0.94,ml/data/urban_tech/test/images/Screenshot-2025-12-12-at-22_10_22_png.rf.1a0bdd25b0833998682ecdcdb1cce497.jpg,Байтик Баатыра улица,Свердловский район
42.867955,74.554005,alligator_crack,1.7,0.98,ml/data/urban_tech/test/images/Screenshot-2025-12-12-at-22_10_22_png.rf.1a0bdd25b0833998682ecdcdb1cce497.jpg,Чуйский проспект,Свердловский район
42.8726,74.566841,longitudinal_crack,1.0,0.87,ml/data/urban_tech/test/images/Screenshot-2025-12-12-at-22_10_22_png.rf.1a0bdd25b0833998682ecdcdb1cce497.jpg,Чуйский проспект,Свердловский район
42.859461,74.562998,longitudinal_crack,1.6,0.98,ml/data/urban_tech/test/images/Screenshot-2025-12-12-at-22_10_22_png.rf.1a0bdd25b0833998682ecdcdb1cce497.jpg,Чуйский проспект,Свердловский район
42.851908,74.588466,longitudinal_crack,1.0,0.97,ml/data/urban_tech/test/images/Screenshot-2025-12-12-at-22_08_50_png.rf.b7146dc165a31f680e0ed1cf99d27696.jpg,Фрунзе улица,Октябрьский район
42.848141,74.593567,longitudinal_crack,1.0,0.92,ml/data/urban_tech/test/images/Screenshot-2025-12-12-at-22_08_50_png.rf.b7146dc165a31f680e0ed1cf99d27696.jpg,Фрунзе улица,Октябрьский район
42.851983,74.588417,longitudinal_crack,1.0,0.97,ml/data/urban_tech/test/images/Screenshot-2025-12-12-at-22_08_50_png.rf.b7146dc165a31f680e0ed1cf99d27696.jpg,Боконбаева улица,Октябрьский район
42.858011,74.598035,longitudinal_crack,1.0,0.96,ml/data/urban_tech/test/images/Screenshot-2025-12-12-at-22_08_50_png.rf.b7146dc165a31f680e0ed1cf99d27696.jpg,Фрунзе улица,Октябрьский район
42.843527,74.595218,longitudinal_crack,1.1,0.98,ml/data/urban_tech/test/images/Screenshot-2025-12-12-at-22_08_50_png.rf.b7146dc165a31f680e0ed1cf99d27696.jpg,Панфилова улица,Октябрьский район
42.847527,74.588462,longitudinal_crack,1.2,0.98,ml/data/urban_tech/test/images/Screenshot-2025-12-12-at-22_08_50_png.rf.b7146dc165a31f680e0ed1cf99d27696.jpg,Тыныстанова улица,Октябрьский район
42.850242,74.589784,longitudinal_crack,1.1,0.93,ml/data/urban_tech/test/images/Screenshot-2025-12-12-at-22_08_50_png.rf.b7146dc165a31f680e0ed1cf99d27696.jpg,Боконбаева улица,Октябрьский район
42.844178,74.592547,longitudinal_crack,1.1,0.89,ml/data/urban_tech/test/images/Screenshot-2025-12-12-at-22_08_50_png.rf.b7146dc165a31f680e0ed1cf99d27696.jpg,Ибраимова улица,Октябрьский район
42.883099,74.565849,alligator_crack,1.1,0.95,ml/data/urban_tech/test/images/Screenshot-2025-12-12-at-21_53_25_png.rf.556655d102e355fc528a9f86930c376f.jpg,Киевская улица,Свердловский район
42.883724,74.564015,alligator_crack,2.2,0.91,ml/data/urban_tech/test/images/Screenshot-2025-12-12-at-21_53_25_png.rf.556655d102e355fc528a9f86930c376f.jpg,Чуйский проспект,Свердловский район
42.882706,74.572102,alligator_crack,1.8,0.92,ml/data/urban_tech/test/images/Screenshot-2025-12-12-at-21_53_25_png.rf.556655d102e355fc528a9f86930c376f.jpg,Чуйский проспект,Свердловский район
42.87624,74.5602,alligator_crack,1.6,0.94,ml/data/urban_tech/test/images/Screenshot-2025-12-12-at-21_53_25_png.rf.556655d102e355fc528a9f86930c376f.jpg,Токтогула улица,Свердловский район
42.889715,74.569936,alligator_crack,1.2,0.98,ml/data/urban_tech/test/images/Screenshot-2025-12-12-at-21_53_25_png.rf.556655d102e355fc528a9f86930c376f.jpg,Токтогула улица,Свердловский район
42.897006,74.570013,alligator_crack,1.0,0.98,ml/data/urban_tech/test/images/Screenshot-2025-12-12-at-21_53_25_png.rf.556655d102e355fc528a9f86930c376f.jpg,Байтик Баатыра улица,Свердловский район
42.871435,74.570944,alligator_crack,1.1,0.9,ml/data/urban_tech/test/images/Screenshot-2025-12-12-at-21_53_25_png.rf.556655d102e355fc528a9f86930c376f.jpg,Чуйский проспект,Свердловский район
42.886702,74.563459,alligator_crack,1.2,0.95,ml/data/urban_tech/test/images/Screenshot-2025-12-12-at-21_53_25_png.rf.556655d102e355fc528a9f86930c376f.jpg,Токтогула улица,Свердловский район
42.88586,74.555781,alligator_crack,1.0,0.92,ml/data/urban_tech/test/images/Screenshot-2025-12-12-at-21_53_25_png.rf.556655d102e355fc528a9f86930c376f.jpg,Московская улица,Свердловский район
42.889147,74.575518,alligator_crack,1.4,0.91,ml/data/urban_tech/test/images/Screenshot-2025-12-12-at-21_53_25_png.rf.556655d102e355fc528a9f86930c376f.jpg,Байтик Баатыра улица,Свердловский район
42.87658,74.558522,alligator_crack,1.3,0.9,ml/data/urban_tech/test/images/Screenshot-2025-12-12-at-21_53_25_png.rf.556655d102e355fc528a9f86930c376f.jpg,Московская улица,Свердловский район
42.880772,74.56667,alligator_crack,1.7,0.93,ml/data/urban_tech/test/images/Screenshot-2025-12-12-at-21_53_25_png.rf.556655d102e355fc528a9f86930c376f.jpg,Байтик Баатыра улица,Свердловский район
42.898606,74.570139,alligator_crack,1.0,0.97,ml/data/urban_tech/test/images/Screenshot-2025-12-12-at-21_53_25_png.rf.556655d102e355fc528a9f86930c376f.jpg,Токтогула улица,Свердловский район
42.881299,74.558544,alligator_crack,1.0,0.86,ml/data/urban_tech/test/images/Screenshot-2025-12-12-at-21_53_25_png.rf.556655d102e355fc528a9f86930c376f.jpg,Чуйский проспект,Свердловский район
42.886561,74.564958,alligator_crack,1.0,0.97,ml/data/urban_tech/test/images/Screenshot-2025-12-12-at-21_53_25_png.rf.556655d102e355fc528a9f86930c376f.jpg,Чуйский проспект,Свердловский район
42.891179,74.571478,alligator_crack,1.0,0.92,ml/data/urban_tech/test/images/Screenshot-2025-12-12-at-21_53_25_png.rf.556655d102e355fc528a9f86930c376f.jpg,Московская улица,Свердловский район
42.882674,74.564047,alligator_crack,1.0,0.89,ml/data/urban_tech/test/images/Screenshot-2025-12-12-at-21_53_25_png.rf.556655d102e355fc528a9f86930c376f.jpg,Киевская улица,Свердловский район
42.868558,74.569272,pothole,3.5,0.91,ml/data/urban_tech/test/images/Screenshot-2025-12-12-at-22_11_22_png.rf.f551bb2925c1834d470668420ed68119.jpg,Московская улица,Свердловский район
42.889839,74.57617,pothole,3.4,0.95,ml/data/urban_tech/test/images/Screenshot-2025-12-12-at-22_11_22_png.rf.f551bb2925c1834d470668420ed68119.jpg,Киевская улица,Свердловский район
42.870187,74.585178,longitudinal_crack,1.6,0.88,ml/data/urban_tech/test/images/Screenshot-2025-12-12-at-22_11_22_png.rf.f551bb2925c1834d470668420ed68119.jpg,Байтик Баатыра улица,Свердловский район
42.85433,74.578412,alligator_crack,1.3,0.93,ml/data/urban_tech/test/images/Screenshot-2025-12-12-at-22_04_42_png.rf.6ae7467899a785c91b0abb85998ef1d3.jpg,Ибраимова улица,Октябрьский район
42.853025,74.583132,alligator_crack,1.0,0.92,ml/data/urban_tech/test/images/Screenshot-2025-12-12-at-22_04_42_png.rf.6ae7467899a785c91b0abb85998ef1d3.jpg,Ибраимова улица,Октябрьский район
42.845452,74.591702,alligator_crack,1.3,0.88,ml/data/urban_tech/test/images/Screenshot-2025-12-12-at-22_04_42_png.rf.6ae7467899a785c91b0abb85998ef1d3.jpg,Фрунзе улица,Октябрьский район
42.850523,74.589503,alligator_crack,1.2,0.91,ml/data/urban_tech/test/images/Screenshot-2025-12-12-at-22_04_42_png.rf.6ae7467899a785c91b0abb85998ef1d3.jpg,Фрунзе улица,Октябрьский район
42.846037,74.58268,alligator_crack,1.0,0.91,ml/data/urban_tech/test/images/Screenshot-2025-12-12-at-22_04_42_png.rf.6ae7467899a785c91b0abb85998ef1d3.jpg,Панфилова улица,Октябрьский район
42.856481,74.59368,alligator_crack,1.0,0.89,ml/data/urban_tech/test/images/Screenshot-2025-12-12-at-22_04_42_png.rf.6ae7467899a785c91b0abb85998ef1d3.jpg,Панфилова улица,Октябрьский район
42.839576,74.585459,alligator_crack,1.1,0.97,ml/data/urban_tech/test/images/Screenshot-2025-12-12-at-22_04_42_png.rf.6ae7467899a785c91b0abb85998ef1d3.jpg,Панфилова улица,Октябрьский район
42.850454,74.589882,alligator_crack,1.6,0.91,ml/data/urban_tech/test/images/Screenshot-2025-12-12-at-22_04_42_png.rf.6ae7467899a785c91b0abb85998ef1d3.jpg,Ибраимова улица,Октябрьский район
